LINK                    
1 69792U 26152A   26195.54818790  .00126451  00000+0  10950-2 0  9999
2 69792  20.5927 332.3809 0024505 346.3344  13.6438 15.66971156  1756
