SAVED_AT,EPOCH,OBJECT_NAME,OBJECT_ID,MEAN_MOTION,ECCENTRICITY,INCLINATION,RA_OF_ASC_NODE,ARG_OF_PERICENTER,MEAN_ANOMALY,EPHEMERIS_TYPE,CLASSIFICATION_TYPE,NORAD_CAT_ID,ELEMENT_SET_NO,REV_AT_EPOCH,BSTAR,MEAN_MOTION_DOT,MEAN_MOTION_DDOT
2026-07-15T02:54:30.523754,2026-07-14T13:09:23.434560,LINK,2026-152A,15.66971156,0.0024505,20.5927,332.3809,346.3344,13.6438,0.0,U,69792.0,999.0,175.0,0.0010950058,0.00126451,0.0
2026-07-15T08:24:25.486452,2026-07-14T13:09:23.434560,LINK,2026-152A,15.66971156,0.0024505,20.5927,332.3809,346.3344,13.6438,0.0,U,69792.0,999.0,175.0,0.0010950058,0.00126451,0.0
